[{"OBJECT_NAME":"ONEWEB-0197","OBJECT_ID":"2021-031AC","EPOCH":"2026-03-03T02:50:14.961408","MEAN_MOTION":13.145018,"ECCENTRICITY":0.0001577,"INCLINATION":87.8997,"RA_OF_ASC_NODE":310.8514,"ARG_OF_PERICENTER":69.0744,"MEAN_ANOMALY":291.0554,"EPHEMERIS_TYPE":0,"CLASSIFICATION_TYPE":"U","NORAD_CAT_ID":48236,"ELEMENT_SET_NO":999,"REV_AT_EPOCH":23425,"BSTAR":7.497e-5,"MEAN_MOTION_DOT":4.1e-7,"MEAN_MOTION_DDOT":0},{"OBJECT_NAME":"ONEWEB-0194","OBJECT_ID":"2021-031AD","EPOCH":"2026-03-03T02:20:45.708864","MEAN_MOTION":13.14502,"ECCENTRICITY":0.0001472,"INCLINATION":87.9003,"RA_OF_ASC_NODE":310.873,"ARG_OF_PERICENTER":85.2658,"MEAN_ANOMALY":274.864,"EPHEMERIS_TYPE":0,"CLASSIFICATION_TYPE":"U","NORAD_CAT_ID":48237,"ELEMENT_SET_NO":999,"REV_AT_EPOCH":23442,"BSTAR":-0.00048113,"MEAN_MOTION_DOT":-1.66e-6,"MEAN_MOTION_DDOT":0},{"OBJECT_NAME":"ONEWEB-0193","OBJECT_ID":"2021-031AE","EPOCH":"2026-03-03T02:43:35.689728","MEAN_MOTION":13.14502281,"ECCENTRICITY":0.0001294,"INCLINATION":87.9001,"RA_OF_ASC_NODE":310.8616,"ARG_OF_PERICENTER":90.0891,"MEAN_ANOMALY":270.0387,"EPHEMERIS_TYPE":0,"CLASSIFICATION_TYPE":"U","NORAD_CAT_ID":48238,"ELEMENT_SET_NO":999,"REV_AT_EPOCH":23437,"BSTAR":-4.3223e-5,"MEAN_MOTION_DOT":-3.0e-8,"MEAN_MOTION_DDOT":0},{"OBJECT_NAME":"ONEWEB-0191","OBJECT_ID":"2021-031AF","EPOCH":"2026-03-03T02:59:34.826496","MEAN_MOTION":13.14502007,"ECCENTRICITY":0.0001578,"INCLINATION":87.8999,"RA_OF_ASC_NODE":310.8549,"ARG_OF_PERICENTER":78.4504,"MEAN_ANOMALY":281.6803,"EPHEMERIS_TYPE":0,"CLASSIFICATION_TYPE":"U","NORAD_CAT_ID":48239,"ELEMENT_SET_NO":999,"REV_AT_EPOCH":23423,"BSTAR":0.00054857,"MEAN_MOTION_DOT":2.16e-6,"MEAN_MOTION_DDOT":0},{"OBJECT_NAME":"ONEWEB-0195","OBJECT_ID":"2021-031AG","EPOCH":"2026-03-03T02:26:28.172544","MEAN_MOTION":13.1450223,"ECCENTRICITY":0.0002021,"INCLINATION":87.9,"RA_OF_ASC_NODE":310.8562,"ARG_OF_PERICENTER":85.0274,"MEAN_ANOMALY":275.1087,"EPHEMERIS_TYPE":0,"CLASSIFICATION_TYPE":"U","NORAD_CAT_ID":48240,"ELEMENT_SET_NO":999,"REV_AT_EPOCH":23421,"BSTAR":-0.00044685,"MEAN_MOTION_DOT":-1.53e-6,"MEAN_MOTION_DDOT":0},{"OBJECT_NAME":"ONEWEB-0201","OBJECT_ID":"2021-031AH","EPOCH":"2026-03-03T03:59:09.280896","MEAN_MOTION":13.14501803,"ECCENTRICITY":0.0001866,"INCLINATION":87.8991,"RA_OF_ASC_NODE":310.8725,"ARG_OF_PERICENTER":72.6924,"MEAN_ANOMALY":287.441,"EPHEMERIS_TYPE":0,"CLASSIFICATION_TYPE":"U","NORAD_CAT_ID":48241,"ELEMENT_SET_NO":999,"REV_AT_EPOCH":23445,"BSTAR":-0.00041591,"MEAN_MOTION_DOT":-1.41e-6,"MEAN_MOTION_DDOT":0},{"OBJECT_NAME":"ONEWEB-0207","OBJECT_ID":"2021-031AJ","EPOCH":"2026-03-03T03:30:25.840224","MEAN_MOTION":13.14502761,"ECCENTRICITY":0.0001783,"INCLINATION":87.9002,"RA_OF_ASC_NODE":310.8479,"ARG_OF_PERICENTER":71.4773,"MEAN_ANOMALY":288.655,"EPHEMERIS_TYPE":0,"CLASSIFICATION_TYPE":"U","NORAD_CAT_ID":48242,"ELEMENT_SET_NO":999,"REV_AT_EPOCH":23436,"BSTAR":0.00080275,"MEAN_MOTION_DOT":3.1e-6,"MEAN_MOTION_DDOT":0},{"OBJECT_NAME":"ONEWEB-0208","OBJECT_ID":"2021-031AK","EPOCH":"2026-03-03T03:04:08.800896","MEAN_MOTION":13.14502356,"ECCENTRICITY":0.0001888,"INCLINATION":87.8998,"RA_OF_ASC_NODE":310.864,"ARG_OF_PERICENTER":84.7768,"MEAN_ANOMALY":275.3577,"EPHEMERIS_TYPE":0,"CLASSIFICATION_TYPE":"U","NORAD_CAT_ID":48243,"ELEMENT_SET_NO":999,"REV_AT_EPOCH":23437,"BSTAR":0.00074458,"MEAN_MOTION_DOT":2.89e-6,"MEAN_MOTION_DDOT":0},{"OBJECT_NAME":"ONEWEB-0200","OBJECT_ID":"2021-031AL","EPOCH":"2026-03-03T04:01:14.005344","MEAN_MOTION":13.14501369,"ECCENTRICITY":0.0001783,"INCLINATION":87.8999,"RA_OF_ASC_NODE":310.8449,"ARG_OF_PERICENTER":79.6636,"MEAN_ANOMALY":280.4695,"EPHEMERIS_TYPE":0,"CLASSIFICATION_TYPE":"U","NORAD_CAT_ID":48244,"ELEMENT_SET_NO":999,"REV_AT_EPOCH":23430,"BSTAR":-0.00031962,"MEAN_MOTION_DOT":-1.06e-6,"MEAN_MOTION_DDOT":0},{"OBJECT_NAME":"ONEWEB-0217","OBJECT_ID":"2021-031AM","EPOCH":"2026-03-03T02:34:27.920640","MEAN_MOTION":13.14501481,"ECCENTRICITY":0.0001976,"INCLINATION":87.9001,"RA_OF_ASC_NODE":310.8566,"ARG_OF_PERICENTER":85.0747,"MEAN_ANOMALY":275.0608,"EPHEMERIS_TYPE":0,"CLASSIFICATION_TYPE":"U","NORAD_CAT_ID":48245,"ELEMENT_SET_NO":999,"REV_AT_EPOCH":23424,"BSTAR":-0.00041783,"MEAN_MOTION_DOT":-1.42e-6,"MEAN_MOTION_DDOT":0},{"OBJECT_NAME":"ONEWEB-0211","OBJECT_ID":"2021-045A","EPOCH":"2026-03-03T03:25:03.035136","MEAN_MOTION":13.16143655,"ECCENTRICITY":0.0001927,"INCLINATION":87.895,"RA_OF_ASC_NODE":280.2789,"ARG_OF_PERICENTER":98.2723,"MEAN_ANOMALY":261.8627,"EPHEMERIS_TYPE":0,"CLASSIFICATION_TYPE":"U","NORAD_CAT_ID":48767,"ELEMENT_SET_NO":999,"REV_AT_EPOCH":23049,"BSTAR":0.00030731,"MEAN_MOTION_DOT":1.3e-6,"MEAN_MOTION_DDOT":0},{"OBJECT_NAME":"ONEWEB-0223","OBJECT_ID":"2021-045B","EPOCH":"2026-03-03T02:14:20.190336","MEAN_MOTION":13.15547524,"ECCENTRICITY":0.000174,"INCLINATION":87.8957,"RA_OF_ASC_NODE":280.3684,"ARG_OF_PERICENTER":102.0682,"MEAN_ANOMALY":258.0644,"EPHEMERIS_TYPE":0,"CLASSIFICATION_TYPE":"U","NORAD_CAT_ID":48768,"ELEMENT_SET_NO":999,"REV_AT_EPOCH":23045,"BSTAR":-0.00016319,"MEAN_MOTION_DOT":-4.9e-7,"MEAN_MOTION_DDOT":0},{"OBJECT_NAME":"ONEWEB-0230","OBJECT_ID":"2021-045C","EPOCH":"2026-03-03T03:22:47.521920","MEAN_MOTION":13.15547143,"ECCENTRICITY":0.0001475,"INCLINATION":87.8943,"RA_OF_ASC_NODE":280.3827,"ARG_OF_PERICENTER":84.584,"MEAN_ANOMALY":275.5458,"EPHEMERIS_TYPE":0,"CLASSIFICATION_TYPE":"U","NORAD_CAT_ID":48769,"ELEMENT_SET_NO":999,"REV_AT_EPOCH":23072,"BSTAR":0.00038248,"MEAN_MOTION_DOT":1.57e-6,"MEAN_MOTION_DDOT":0},{"OBJECT_NAME":"ONEWEB-0237","OBJECT_ID":"2021-045D","EPOCH":"2026-03-03T03:06:48.831840","MEAN_MOTION":13.15547118,"ECCENTRICITY":0.0001521,"INCLINATION":87.8943,"RA_OF_ASC_NODE":280.3868,"ARG_OF_PERICENTER":97.3826,"MEAN_ANOMALY":262.7477,"EPHEMERIS_TYPE":0,"CLASSIFICATION_TYPE":"U","NORAD_CAT_ID":48770,"ELEMENT_SET_NO":999,"REV_AT_EPOCH":23044,"BSTAR":0.00045745,"MEAN_MOTION_DOT":1.85e-6,"MEAN_MOTION_DDOT":0},{"OBJECT_NAME":"ONEWEB-0235","OBJECT_ID":"2021-045E","EPOCH":"2026-03-03T02:30:18.398304","MEAN_MOTION":13.15547224,"ECCENTRICITY":0.0001672,"INCLINATION":87.8955,"RA_OF_ASC_NODE":280.3671,"ARG_OF_PERICENTER":103.9199,"MEAN_ANOMALY":256.2117,"EPHEMERIS_TYPE":0,"CLASSIFICATION_TYPE":"U","NORAD_CAT_ID":48771,"ELEMENT_SET_NO":999,"REV_AT_EPOCH":23043,"BSTAR":-9.0322e-6,"MEAN_MOTION_DOT":9.0e-8,"MEAN_MOTION_DDOT":0},{"OBJECT_NAME":"ONEWEB-0242","OBJECT_ID":"2021-045F","EPOCH":"2026-03-03T02:21:10.631808","MEAN_MOTION":13.15547148,"ECCENTRICITY":0.0001467,"INCLINATION":87.8953,"RA_OF_ASC_NODE":280.3639,"ARG_OF_PERICENTER":92.8668,"MEAN_ANOMALY":267.263,"EPHEMERIS_TYPE":0,"CLASSIFICATION_TYPE":"U","NORAD_CAT_ID":48772,"ELEMENT_SET_NO":999,"REV_AT_EPOCH":23047,"BSTAR":-0.0001233,"MEAN_MOTION_DOT":-3.4e-7,"MEAN_MOTION_DDOT":0},{"OBJECT_NAME":"ONEWEB-0241","OBJECT_ID":"2021-045G","EPOCH":"2026-03-03T03:52:27.139872","MEAN_MOTION":13.15547577,"ECCENTRICITY":0.0001863,"INCLINATION":87.8947,"RA_OF_ASC_NODE":280.3815,"ARG_OF_PERICENTER":97.6237,"MEAN_ANOMALY":262.5105,"EPHEMERIS_TYPE":0,"CLASSIFICATION_TYPE":"U","NORAD_CAT_ID":48773,"ELEMENT_SET_NO":999,"REV_AT_EPOCH":23039,"BSTAR":-0.00020724,"MEAN_MOTION_DOT":-6.5e-7,"MEAN_MOTION_DDOT":0}]
