ONEWEB-0197             
1 48236U 21031AC  26062.11822872  .00000041  00000+0  74970-4 0  9992
2 48236  87.8997 310.8514 0001577  69.0744 291.0554 13.14501800234250
ONEWEB-0194             
1 48237U 21031AD  26062.09775126 -.00000166  00000+0 -48113-3 0  9998
2 48237  87.9003 310.8730 0001472  85.2658 274.8640 13.14502000234425
ONEWEB-0193             
1 48238U 21031AE  26062.11360752 -.00000003  00000+0 -43223-4 0  9995
2 48238  87.9001 310.8616 0001294  90.0891 270.0387 13.14502281234373
ONEWEB-0191             
1 48239U 21031AF  26062.12470864  .00000216  00000+0  54857-3 0  9991
2 48239  87.8999 310.8549 0001578  78.4504 281.6803 13.14502007234232
ONEWEB-0195             
1 48240U 21031AG  26062.10171496 -.00000153  00000+0 -44685-3 0  9990
2 48240  87.9000 310.8562 0002021  85.0274 275.1087 13.14502230234213
ONEWEB-0201             
1 48241U 21031AH  26062.16607964 -.00000141  00000+0 -41591-3 0  9991
2 48241  87.8991 310.8725 0001866  72.6924 287.4410 13.14501803234450
ONEWEB-0207             
1 48242U 21031AJ  26062.14613241  .00000310  00000+0  80275-3 0  9993
2 48242  87.9002 310.8479 0001783  71.4773 288.6550 13.14502761234360
ONEWEB-0208             
1 48243U 21031AK  26062.12787964  .00000289  00000+0  74458-3 0  9997
2 48243  87.8998 310.8640 0001888  84.7768 275.3577 13.14502356234374
ONEWEB-0200             
1 48244U 21031AL  26062.16752321 -.00000106  00000+0 -31962-3 0  9994
2 48244  87.8999 310.8449 0001783  79.6636 280.4695 13.14501369234308
ONEWEB-0217             
1 48245U 21031AM  26062.10726760 -.00000142  00000+0 -41783-3 0  9999
2 48245  87.9001 310.8566 0001976  85.0747 275.0608 13.14501481234244
ONEWEB-0211             
1 48767U 21045A   26062.14239624  .00000130  00000+0  30731-3 0  9991
2 48767  87.8950 280.2789 0001927  98.2723 261.8627 13.16143655230492
ONEWEB-0223             
1 48768U 21045B   26062.09328924 -.00000049  00000+0 -16319-3 0  9995
2 48768  87.8957 280.3684 0001740 102.0682 258.0644 13.15547524230451
ONEWEB-0230             
1 48769U 21045C   26062.14082780  .00000157  00000+0  38248-3 0  9992
2 48769  87.8943 280.3827 0001475  84.5840 275.5458 13.15547143230725
ONEWEB-0237             
1 48770U 21045D   26062.12973185  .00000185  00000+0  45745-3 0  9991
2 48770  87.8943 280.3868 0001521  97.3826 262.7477 13.15547118230440
ONEWEB-0235             
1 48771U 21045E   26062.10437961  .00000009  00000+0 -90322-5 0  9996
2 48771  87.8955 280.3671 0001672 103.9199 256.2117 13.15547224230436
ONEWEB-0242             
1 48772U 21045F   26062.09803972 -.00000034  00000+0 -12330-3 0  9994
2 48772  87.8953 280.3639 0001467  92.8668 267.2630 13.15547148230479
ONEWEB-0241             
1 48773U 21045G   26062.16142523 -.00000065  00000+0 -20724-3 0  9991
2 48773  87.8947 280.3815 0001863  97.6237 262.5105 13.15547577230396
